CREATION_DATE,OBJECT_NAME,OBJECT_ID,CENTER_NAME,REF_FRAME,TIME_SYSTEM,MEAN_ELEMENT_THEORY,EPOCH,MEAN_MOTION,ECCENTRICITY,INCLINATION,RA_OF_ASC_NODE,ARG_OF_PERICENTER,MEAN_ANOMALY,EPHEMERIS_TYPE,REV_AT_EPOCH,BSTAR,MEAN_MOTION_DOT,MEAN_MOTION_DDOT,SEMIMAJOR_AXIS,PERIOD,APOAPSIS,PERIAPSIS,OBJECT_TYPE,LAUNCH_DATE,DECAY_DATE
2023-05-08T06:56:12,STARLINK-1049,2019-074AT,EARTH,TEME,UTC,SGP4,2023-05-08T06:00:00.999648,15.792155,0.0001072,53.0507,147.2493,69.6941,254.677,0,19287,0.00047747,0.00087583,0.0,6710.799,91.185,333.384,331.945,PAYLOAD,2019-11-11,
2022-03-27T13:56:11,STARLINK-1050,2019-074AU,EARTH,TEME,UTC,SGP4,2022-03-27T13:35:07.001664,16.4504716,0.0003622,53.0298,189.2044,326.2159,135.0631,0,13135,0.0018103,0.598733,1.2542e-05,6530.548,87.535,154.778,150.047,PAYLOAD,2019-11-11,2022-03-27
2021-12-20T10:36:10,STARLINK-1051,2019-074AV,EARTH,TEME,UTC,SGP4,2021-12-20T07:28:52.301280,16.29058133,0.0005448,53.0268,163.8503,326.1844,36.6435,0,11811,0.0026442,0.11367391,1.2138e-05,6573.209,88.395,198.655,191.493,PAYLOAD,2019-11-11,2021-12-20
2023-05-08T14:36:13,STARLINK-1052,2019-074AW,EARTH,TEME,UTC,SGP4,2023-05-08T11:02:46.194432,15.06390293,0.0001246,53.0514,178.4298,88.5148,271.5984,0,19245,0.00037284,5.275e-05,0.0,6925.378,95.593,548.106,546.38,PAYLOAD,2019-11-11,
2023-05-08T14:36:13,STARLINK-1053,2019-074AX,EARTH,TEME,UTC,SGP4,2023-05-08T11:26:40.748928,15.06382635,0.0001189,53.0523,198.4467,80.9989,279.1134,0,19218,0.0016411,0.00024236,0.0,6925.402,95.593,548.09,546.443,PAYLOAD,2019-11-11,
2023-05-08T14:36:13,STARLINK-1054,2019-074AY,EARTH,TEME,UTC,SGP4,2023-05-08T11:00:07.959744,15.06394971,0.0001412,53.0517,198.4377,86.3109,273.8041,0,19218,0.00047123,6.743e-05,0.0,6925.364,95.592,548.207,546.251,PAYLOAD,2019-11-11,
2023-05-08T03:29:17,STARLINK-1055,2019-074AZ,EARTH,TEME,UTC,SGP4,2023-05-07T21:41:47.150016,15.15045823,0.0002868,53.0509,197.3532,3.8361,356.2653,0,19198,0.0018249,0.00034384,0.0,6898.976,95.047,522.82,518.863,PAYLOAD,2019-11-11,
2023-05-08T14:36:13,STARLINK-1056,2019-074BA,EARTH,TEME,UTC,SGP4,2023-05-08T10:54:48.069792,15.06393664,0.0001349,53.053,198.4581,82.2206,277.8936,0,19218,0.0012369,0.00018187,0.0,6925.368,95.593,548.167,546.299,PAYLOAD,2019-11-11,
2023-05-08T14:36:13,STARLINK-1057,2019-074BB,EARTH,TEME,UTC,SGP4,2023-05-08T10:57:28.019520,15.06391928,0.0001279,53.0517,178.4471,85.3158,274.7977,0,19245,0.00041811,5.95e-05,0.0,6925.373,95.593,548.124,546.353,PAYLOAD,2019-11-11,
2023-05-08T14:36:13,STARLINK-1058,2019-074BC,EARTH,TEME,UTC,SGP4,2023-05-08T11:25:17.363424,15.06377531,0.0001252,53.0527,198.3533,88.0344,272.0788,0,19218,0.001604,0.00023676,0.0,6925.417,95.594,548.149,546.415,PAYLOAD,2019-11-11,
2023-05-08T06:56:12,STARLINK-1059,2019-074BD,EARTH,TEME,UTC,SGP4,2023-05-08T02:46:23.067264,15.21357026,0.0004219,53.0589,166.7587,348.8712,11.219,0,19259,0.00040539,8.883e-05,0.0,6879.883,94.652,504.651,498.846,PAYLOAD,2019-11-11,
2023-05-08T14:46:13,STARLINK-1060,2019-074BE,EARTH,TEME,UTC,SGP4,2023-05-08T09:43:09.287040,15.06393781,0.0001207,53.0521,178.682,85.2557,274.857,0,19244,0.0003285,4.614e-05,0.0,6925.368,95.593,548.069,546.397,PAYLOAD,2019-11-11,
2023-05-08T14:46:13,STARLINK-1061,2019-074BF,EARTH,TEME,UTC,SGP4,2023-05-08T11:16:02.075808,15.06372605,0.0001217,53.0528,198.3911,92.3014,267.8114,0,19218,0.0015984,0.00023589,0.0,6925.433,95.594,548.14,546.455,PAYLOAD,2019-11-11,
2023-05-08T14:46:13,STARLINK-1062,2019-074BG,EARTH,TEME,UTC,SGP4,2023-05-08T11:04:05.519136,15.0638667,0.0001579,53.0526,198.4125,81.9933,278.1235,0,19218,8.9576e-05,1.052e-05,0.0,6925.389,95.593,548.348,546.161,PAYLOAD,2019-11-11,
2023-05-08T14:36:13,STARLINK-1063,2019-074BH,EARTH,TEME,UTC,SGP4,2023-05-08T11:37:16.378176,15.06400164,0.0001121,53.0515,198.3224,66.7526,293.3581,0,19218,0.001155,0.00016964,0.0,6925.348,95.592,547.989,546.437,PAYLOAD,2019-11-11,
2022-02-10T22:46:11,STARLINK-1064,2019-074BJ,EARTH,TEME,UTC,SGP4,2022-02-10T21:21:12.684960,16.34346539,0.0002481,53.0345,356.8546,215.4574,145.3008,0,12506,0.0032275,0.23298976,1.2172e-05,6559.022,88.109,182.514,179.26,PAYLOAD,2019-11-11,2022-02-11
2023-04-21T02:49:26,STARLINK-1065,2019-074BK,EARTH,TEME,UTC,SGP4,2023-04-20T17:39:29.032416,16.37686665,0.0007777,52.9765,207.2551,341.1082,146.3348,0,19044,0.0028676,0.30266833,1.2425e-05,6550.101,87.929,177.06,166.872,PAYLOAD,2019-11-11,2023-04-21
2023-05-08T07:16:13,STARLINK-1066,2020-001AS,EARTH,TEME,UTC,SGP4,2023-05-07T16:52:00.638688,15.06440402,9.43e-05,53.0538,281.8278,66.2632,293.8456,0,18405,0.0015639,0.00023115,0.0,6925.225,95.59,547.743,546.437,PAYLOAD,2020-01-07,
2023-05-08T14:36:13,STARLINK-1067,2019-074BL,EARTH,TEME,UTC,SGP4,2023-05-08T11:21:20.095200,15.06373837,0.0001065,53.0523,198.3732,81.5879,278.523,0,19218,0.0016452,0.00024291,0.0,6925.429,95.594,548.031,546.556,PAYLOAD,2019-11-11,
2023-05-08T14:36:13,STARLINK-1068,2019-074BM,EARTH,TEME,UTC,SGP4,2023-05-08T11:08:04.714944,15.06388915,0.0001359,53.0513,178.418,86.7495,273.365,0,19245,0.00027609,3.832e-05,0.0,6925.383,95.593,548.189,546.306,PAYLOAD,2019-11-11,
2023-05-08T03:29:17,STARLINK-1069,2020-001AT,EARTH,TEME,UTC,SGP4,2023-05-07T17:02:37.699584,15.06441922,0.0001147,53.0537,281.7996,97.7819,262.33,0,18405,0.0019456,0.0002885,0.0,6925.22,95.589,547.879,546.291,PAYLOAD,2020-01-07,
2023-05-08T03:29:17,STARLINK-1070,2020-001AU,EARTH,TEME,UTC,SGP4,2023-05-07T16:55:57.054144,15.06438567,9.12e-05,53.0532,281.8122,53.1315,306.9758,0,18411,0.0019075,0.00028275,0.0,6925.23,95.59,547.727,546.464,PAYLOAD,2020-01-07,
2023-05-08T07:16:13,STARLINK-1071,2020-001W,EARTH,TEME,UTC,SGP4,2023-05-08T05:07:07.765248,15.06422444,0.0001344,53.0533,299.54,54.4349,305.6766,0,18390,0.0006386,9.249e-05,0.0,6925.28,95.591,548.076,546.214,PAYLOAD,2020-01-07,
2021-11-23T01:36:13,STARLINK-1072,2020-001X,EARTH,TEME,UTC,SGP4,2021-11-22T23:31:43.052160,16.36428089,0.0007355,53.0327,120.9156,317.3591,138.9149,0,10444,0.0025673,0.23454403,1.2356e-05,6553.459,87.997,180.144,170.503,PAYLOAD,2020-01-07,2021-11-23
2023-05-08T03:29:17,STARLINK-1073,2020-001A,EARTH,TEME,UTC,SGP4,2023-05-07T19:36:33.157152,15.06434567,0.000114,53.0537,321.3167,82.5453,277.5665,0,18356,0.0013586,0.00020032,0.0,6925.243,95.59,547.897,546.318,PAYLOAD,2020-01-07,
2023-05-08T07:16:13,STARLINK-1074,2020-001AV,EARTH,TEME,UTC,SGP4,2023-05-08T03:06:19.848096,15.06433733,7.11e-05,53.0537,279.9071,88.4148,271.6922,0,18417,0.0013225,0.0001949,0.0,6925.245,95.59,547.603,546.618,PAYLOAD,2020-01-07,
2021-07-29T03:56:10,STARLINK-1075,2020-001AW,EARTH,TEME,UTC,SGP4,2021-07-29T03:36:00.482112,16.44261095,0.000147,53.0326,273.9075,251.0926,207.3554,0,8699,0.0014841,0.38719428,1.2474e-05,6532.629,87.577,155.454,153.534,PAYLOAD,2020-01-07,2021-07-29
2023-05-08T07:16:13,STARLINK-1076,2020-001AX,EARTH,TEME,UTC,SGP4,2023-05-08T03:28:54.753888,15.06477048,4.14e-05,53.0535,279.8471,90.1069,269.9967,0,18417,0.0016409,0.00024295,0.0,6925.112,95.587,547.264,546.691,PAYLOAD,2020-01-07,
2020-11-13T20:33:19,STARLINK-1077,2020-001AY,EARTH,TEME,UTC,SGP4,2020-11-09T12:32:22.790400,16.31946065,0.00011290,52.9869,341.1938,151.1455,208.9650,0,4794,0.00197550000000,0.11152622,0.0000121270000,6565.452,88.238,188.058,186.575,PAYLOAD,2020-01-07,2020-11-09
